[{"OBJECT_NAME":"GLOBALSTAR M001","OBJECT_ID":"1998-008A","EPOCH":"2026-03-04T01:27:39.466944","MEAN_MOTION":12.38229167,"ECCENTRICITY":0.0002327,"INCLINATION":52.0035,"RA_OF_ASC_NODE":296.8314,"ARG_OF_PERICENTER":83.2312,"MEAN_ANOMALY":64.9258,"EPHEMERIS_TYPE":0,"CLASSIFICATION_TYPE":"U","NORAD_CAT_ID":25162,"ELEMENT_SET_NO":999,"REV_AT_EPOCH":27590,"BSTAR":0.00027871,"MEAN_MOTION_DOT":-6.0e-7,"MEAN_MOTION_DDOT":0},{"OBJECT_NAME":"GLOBALSTAR M004","OBJECT_ID":"1998-008B","EPOCH":"2026-03-03T04:31:38.876160","MEAN_MOTION":12.63415761,"ECCENTRICITY":0.0003393,"INCLINATION":52.0033,"RA_OF_ASC_NODE":343.9895,"ARG_OF_PERICENTER":135.3668,"MEAN_ANOMALY":20.0693,"EPHEMERIS_TYPE":0,"CLASSIFICATION_TYPE":"U","NORAD_CAT_ID":25163,"ELEMENT_SET_NO":999,"REV_AT_EPOCH":29442,"BSTAR":0.00017405239,"MEAN_MOTION_DOT":-7.2e-7,"MEAN_MOTION_DDOT":0},{"OBJECT_NAME":"GLOBALSTAR M002","OBJECT_ID":"1998-008C","EPOCH":"2026-03-04T03:27:18.901728","MEAN_MOTION":11.61515233,"ECCENTRICITY":5.75e-5,"INCLINATION":52.0029,"RA_OF_ASC_NODE":308.4055,"ARG_OF_PERICENTER":265.7178,"MEAN_ANOMALY":94.3577,"EPHEMERIS_TYPE":0,"CLASSIFICATION_TYPE":"U","NORAD_CAT_ID":25164,"ELEMENT_SET_NO":999,"REV_AT_EPOCH":21427,"BSTAR":-4.7804e-5,"MEAN_MOTION_DOT":-7.9e-7,"MEAN_MOTION_DDOT":0},{"OBJECT_NAME":"GLOBALSTAR M003","OBJECT_ID":"1998-008D","EPOCH":"2026-03-04T04:56:51.216576","MEAN_MOTION":12.12025408,"ECCENTRICITY":0.0008784,"INCLINATION":51.9856,"RA_OF_ASC_NODE":168.3234,"ARG_OF_PERICENTER":96.2254,"MEAN_ANOMALY":266.7166,"EPHEMERIS_TYPE":0,"CLASSIFICATION_TYPE":"U","NORAD_CAT_ID":25165,"ELEMENT_SET_NO":999,"REV_AT_EPOCH":26475,"BSTAR":-0.00089274,"MEAN_MOTION_DOT":-1.73e-6,"MEAN_MOTION_DDOT":0},{"OBJECT_NAME":"GLOBALSTAR M014","OBJECT_ID":"1998-023A","EPOCH":"2026-03-03T20:05:30.536736","MEAN_MOTION":11.65484919,"ECCENTRICITY":0.00019276,"INCLINATION":51.9813,"RA_OF_ASC_NODE":226.9347,"ARG_OF_PERICENTER":109.204,"MEAN_ANOMALY":38.9099,"EPHEMERIS_TYPE":0,"CLASSIFICATION_TYPE":"U","NORAD_CAT_ID":25306,"ELEMENT_SET_NO":999,"REV_AT_EPOCH":22144,"BSTAR":-0.00023854002,"MEAN_MOTION_DOT":-9.0e-7,"MEAN_MOTION_DDOT":0},{"OBJECT_NAME":"GLOBALSTAR M006","OBJECT_ID":"1998-023B","EPOCH":"2026-03-04T00:21:26.546112","MEAN_MOTION":11.58177474,"ECCENTRICITY":0.0002433,"INCLINATION":51.9936,"RA_OF_ASC_NODE":288.6747,"ARG_OF_PERICENTER":208.3292,"MEAN_ANOMALY":300.5624,"EPHEMERIS_TYPE":0,"CLASSIFICATION_TYPE":"U","NORAD_CAT_ID":25307,"ELEMENT_SET_NO":999,"REV_AT_EPOCH":24693,"BSTAR":0.00068388,"MEAN_MOTION_DOT":-4.2e-7,"MEAN_MOTION_DDOT":0},{"OBJECT_NAME":"GLOBALSTAR M015","OBJECT_ID":"1998-023C","EPOCH":"2026-03-04T02:43:49.615680","MEAN_MOTION":11.48860619,"ECCENTRICITY":0.0012667,"INCLINATION":51.9842,"RA_OF_ASC_NODE":38.8075,"ARG_OF_PERICENTER":178.1283,"MEAN_ANOMALY":263.9387,"EPHEMERIS_TYPE":0,"CLASSIFICATION_TYPE":"U","NORAD_CAT_ID":25308,"ELEMENT_SET_NO":999,"REV_AT_EPOCH":22395,"BSTAR":-2.8061e-5,"MEAN_MOTION_DOT":-7.5e-7,"MEAN_MOTION_DDOT":0},{"OBJECT_NAME":"GLOBALSTAR M008","OBJECT_ID":"1998-023D","EPOCH":"2026-03-03T11:38:52.869696","MEAN_MOTION":12.36081264,"ECCENTRICITY":0.00024188,"INCLINATION":51.9961,"RA_OF_ASC_NODE":166.2734,"ARG_OF_PERICENTER":17.4955,"MEAN_ANOMALY":64.4311,"EPHEMERIS_TYPE":0,"CLASSIFICATION_TYPE":"U","NORAD_CAT_ID":25309,"ELEMENT_SET_NO":999,"REV_AT_EPOCH":26991,"BSTAR":0.00015253254,"MEAN_MOTION_DOT":-7.7e-7,"MEAN_MOTION_DDOT":0},{"OBJECT_NAME":"GLOBALSTAR M023","OBJECT_ID":"1999-004A","EPOCH":"2026-03-04T05:04:37.930368","MEAN_MOTION":12.62518014,"ECCENTRICITY":0.0009766,"INCLINATION":52.0137,"RA_OF_ASC_NODE":341.6523,"ARG_OF_PERICENTER":345.3566,"MEAN_ANOMALY":179.1947,"EPHEMERIS_TYPE":0,"CLASSIFICATION_TYPE":"U","NORAD_CAT_ID":25621,"ELEMENT_SET_NO":999,"REV_AT_EPOCH":24857,"BSTAR":-6.8606e-5,"MEAN_MOTION_DOT":-1.16e-6,"MEAN_MOTION_DDOT":0},{"OBJECT_NAME":"GLOBALSTAR M040","OBJECT_ID":"1999-004B","EPOCH":"2026-03-04T04:59:55.582944","MEAN_MOTION":12.62029311,"ECCENTRICITY":2.71e-5,"INCLINATION":51.9947,"RA_OF_ASC_NODE":346.1984,"ARG_OF_PERICENTER":228.0558,"MEAN_ANOMALY":296.8731,"EPHEMERIS_TYPE":0,"CLASSIFICATION_TYPE":"U","NORAD_CAT_ID":25622,"ELEMENT_SET_NO":999,"REV_AT_EPOCH":24808,"BSTAR":0.00022281,"MEAN_MOTION_DOT":-6.4e-7,"MEAN_MOTION_DDOT":0},{"OBJECT_NAME":"GLOBALSTAR M036","OBJECT_ID":"1999-004C","EPOCH":"2026-03-04T02:21:38.450016","MEAN_MOTION":11.8662025,"ECCENTRICITY":0.0010321,"INCLINATION":51.9957,"RA_OF_ASC_NODE":275.2388,"ARG_OF_PERICENTER":185.3825,"MEAN_ANOMALY":324.0923,"EPHEMERIS_TYPE":0,"CLASSIFICATION_TYPE":"U","NORAD_CAT_ID":25623,"ELEMENT_SET_NO":999,"REV_AT_EPOCH":20983,"BSTAR":0.00051344,"MEAN_MOTION_DOT":-4.7e-7,"MEAN_MOTION_DDOT":0},{"OBJECT_NAME":"GLOBALSTAR M038","OBJECT_ID":"1999-004D","EPOCH":"2026-03-04T04:10:31.166112","MEAN_MOTION":12.32541859,"ECCENTRICITY":0.0001523,"INCLINATION":51.9991,"RA_OF_ASC_NODE":42.8269,"ARG_OF_PERICENTER":231.8909,"MEAN_ANOMALY":212.3591,"EPHEMERIS_TYPE":0,"CLASSIFICATION_TYPE":"U","NORAD_CAT_ID":25624,"ELEMENT_SET_NO":999,"REV_AT_EPOCH":23443,"BSTAR":0.00010285,"MEAN_MOTION_DOT":-8.3e-7,"MEAN_MOTION_DDOT":0},{"OBJECT_NAME":"GLOBALSTAR M022","OBJECT_ID":"1999-012A","EPOCH":"2026-03-03T22:12:53.061696","MEAN_MOTION":12.02510493,"ECCENTRICITY":0.0002498,"INCLINATION":52.0051,"RA_OF_ASC_NODE":304.8097,"ARG_OF_PERICENTER":340.9644,"MEAN_ANOMALY":134.6132,"EPHEMERIS_TYPE":0,"CLASSIFICATION_TYPE":"U","NORAD_CAT_ID":25649,"ELEMENT_SET_NO":999,"REV_AT_EPOCH":20762,"BSTAR":0.00059347,"MEAN_MOTION_DOT":-3.7e-7,"MEAN_MOTION_DDOT":0},{"OBJECT_NAME":"GLOBALSTAR M041","OBJECT_ID":"1999-012B","EPOCH":"2026-03-03T15:38:27.163392","MEAN_MOTION":11.96684543,"ECCENTRICITY":0.00021671,"INCLINATION":52.0006,"RA_OF_ASC_NODE":194.9121,"ARG_OF_PERICENTER":113.0669,"MEAN_ANOMALY":247.0396,"EPHEMERIS_TYPE":0,"CLASSIFICATION_TYPE":"U","NORAD_CAT_ID":25650,"ELEMENT_SET_NO":999,"REV_AT_EPOCH":20934,"BSTAR":-0.0002791646,"MEAN_MOTION_DOT":-1.07e-6,"MEAN_MOTION_DDOT":0},{"OBJECT_NAME":"GLOBALSTAR M046","OBJECT_ID":"1999-012C","EPOCH":"2026-03-03T23:05:10.099680","MEAN_MOTION":12.09419704,"ECCENTRICITY":0.0002657,"INCLINATION":52.0033,"RA_OF_ASC_NODE":245.361,"ARG_OF_PERICENTER":63.5619,"MEAN_ANOMALY":103.6458,"EPHEMERIS_TYPE":0,"CLASSIFICATION_TYPE":"U","NORAD_CAT_ID":25651,"ELEMENT_SET_NO":999,"REV_AT_EPOCH":21509,"BSTAR":-0.0010229,"MEAN_MOTION_DOT":-1.82e-6,"MEAN_MOTION_DDOT":0},{"OBJECT_NAME":"GLOBALSTAR M037","OBJECT_ID":"1999-012D","EPOCH":"2026-03-04T04:09:07.910208","MEAN_MOTION":12.62461867,"ECCENTRICITY":0.0002065,"INCLINATION":51.9997,"RA_OF_ASC_NODE":112.2889,"ARG_OF_PERICENTER":54.7501,"MEAN_ANOMALY":340.1878,"EPHEMERIS_TYPE":0,"CLASSIFICATION_TYPE":"U","NORAD_CAT_ID":25652,"ELEMENT_SET_NO":999,"REV_AT_EPOCH":24411,"BSTAR":-5.1462e-5,"MEAN_MOTION_DOT":-1.13e-6,"MEAN_MOTION_DDOT":0}]
