GLOBALSTAR M001         
1 25162U 98008A   26063.06087346 -.00000060  00000+0  27871-3 0  9996
2 25162  52.0035 296.8314 0002327  83.2312  64.9258 12.38229167275907
GLOBALSTAR M004         
1 25163U 98008B   26062.18864440 -.00000072  00000+0  17405-3 0  9992
2 25163  52.0033 343.9895 0003393 135.3668  20.0693 12.63415761294420
GLOBALSTAR M002         
1 25164U 98008C   26063.14396877 -.00000079  00000+0 -47804-4 0  9999
2 25164  52.0029 308.4055 0000575 265.7178  94.3577 11.61515233214275
GLOBALSTAR M003         
1 25165U 98008D   26063.20614834 -.00000173  00000+0 -89274-3 0  9994
2 25165  51.9856 168.3234 0008784  96.2254 266.7166 12.12025408264750
GLOBALSTAR M014         
1 25306U 98023A   26062.83715899 -.00000090  00000+0 -23854-3 0  9999
2 25306  51.9813 226.9347 0001927 109.2040  38.9099 11.65484919221442
GLOBALSTAR M006         
1 25307U 98023B   26063.01489058 -.00000042  00000+0  68388-3 0  9993
2 25307  51.9936 288.6747 0002433 208.3292 300.5624 11.58177474246931
GLOBALSTAR M015         
1 25308U 98023C   26063.11376870 -.00000075  00000+0 -28061-4 0  9994
2 25308  51.9842  38.8075 0012667 178.1283 263.9387 11.48860619223955
GLOBALSTAR M008         
1 25309U 98023D   26062.48533414 -.00000077  00000+0  15253-3 0  9992
2 25309  51.9961 166.2734 0002418  17.4955  64.4311 12.36081264269916
GLOBALSTAR M023         
1 25621U 99004A   26063.21155012 -.00000116  00000+0 -68606-4 0  9991
2 25621  52.0137 341.6523 0009766 345.3566 179.1947 12.62518014248574
GLOBALSTAR M040         
1 25622U 99004B   26063.20828221 -.00000064  00000+0  22281-3 0  9999
2 25622  51.9947 346.1984 0000271 228.0558 296.8731 12.62029311248084
GLOBALSTAR M036         
1 25623U 99004C   26063.09836169 -.00000047  00000+0  51344-3 0  9990
2 25623  51.9957 275.2388 0010321 185.3825 324.0923 11.86620250209836
GLOBALSTAR M038         
1 25624U 99004D   26063.17397183 -.00000083  00000+0  10285-3 0  9997
2 25624  51.9991  42.8269 0001523 231.8909 212.3591 12.32541859234438
GLOBALSTAR M022         
1 25649U 99012A   26062.92561414 -.00000037  00000+0  59347-3 0  9996
2 25649  52.0051 304.8097 0002498 340.9644 134.6132 12.02510493207629
GLOBALSTAR M041         
1 25650U 99012B   26062.65170328 -.00000107  00000+0 -27916-3 0  9994
2 25650  52.0006 194.9121 0002167 113.0669 247.0396 11.96684543209348
GLOBALSTAR M046         
1 25651U 99012C   26062.96192245 -.00000182  00000+0 -10229-2 0  9992
2 25651  52.0033 245.3610 0002657  63.5619 103.6458 12.09419704215096
GLOBALSTAR M037         
1 25652U 99012D   26063.17300822 -.00000113  00000+0 -51462-4 0  9999
2 25652  51.9997 112.2889 0002065  54.7501 340.1878 12.62461867244114
